#dP2018  5 17  0  0  0.00000000      96 __u+U ITR00 FIT  IAC
## 2001 345600.00000000   900.00000000 58255 0.0000000000000
+   86   C01C02C03C04C05C06C07C08C09C10C11C12C13C14E01E02E03
+        E04E05E07E08E09E12E14E18E19E24E26E30G01G02G03G04G05
+        G06G07G08G09G10G11G12G13G14G15G16G17G18G19G20G21G22
+        G23G24G25G26G27G28G29G30G31G32J01J02J03R01R02R03R04
+        R07R08R09R10R11R13R14R15R16R17R18R19R20R21R22R23R24
+        R26  0  0  0  0  0  0  0  0  0  0  0  0  0  0  0  0
++         0  0  0  0  0  0  0  0  0  0  0  0  0  0  0  0  0
++         0  0  0  0  0  0  0  0  0  0  0  0  0  0  0  0  0
++         0  0  0  0  0  0  0  0  0  0  0  0  0  0  0  0  0
++         0  0  0  0  0  0  0  0  0  0  0  0  0  0  0  0  0
++         0  0  0  0  0  0  0  0  0  0  0  0  0  0  0  0  0
++         0  0  0  0  0  0  0  0  0  0  0  0  0  0  0  0  0
%c M  cc GPS ccc cccc cccc cccc cccc ccccc ccccc ccccc ccccc
%c cc cc ccc ccc cccc cccc cccc cccc ccccc ccccc ccccc ccccc
%f  0.0000000  0.000000000  0.00000000000  0.000000000000000
%f  0.0000000  0.000000000  0.00000000000  0.000000000000000
%i    0    0    0    0      0      0      0      0         0
%i    0    0    0    0      0      0      0      0         0
/*                                                          
/*   RSA / INFORMATION & ANALYSIS CENTER (IAC) OF MCC       
/*   ULTRA-RAPID DETERMINATION                              
/* PCV:IGS14_1992 OL/AL:FES2004  NONE     YN ORB:CoN CLK:CoN
*  2018 05 17  9 45  0.00000000
PC01 -32312.242862  27068.161574    349.156927   -287.547320
PC02   4405.504754  41929.881994    544.179921    429.951522
PC03 -14899.912923  39460.379950    884.968454   -337.429140
PC04 -39618.398237  14445.854137    453.244801   -255.373326
PC05  21863.930558  36045.879836    329.508107    420.238225
PC06 -23091.373526  23669.665141 -26064.223704     21.906862
PC07 -16810.864077  37635.723841  -7503.808686    146.429165
PC08  -7036.861282  23818.325847  34189.443440    343.143897
PC09  -6026.362543  24974.307437 -33295.236453   -122.101936
PC10  -5874.096719  40979.081337   7034.262656   -238.230549
PC11  23679.198299  -1061.398453 -14728.409709   -511.311277
PC12  25038.472624  12008.388115   3245.237773    445.847667
PC13   5367.764323  32386.163927  26602.930387   -335.119972
PC14  23845.808971 -10826.106715  -9498.824794    323.232987
PE01  12485.287509  13818.711707  22999.269589   -346.610108
PE02 -12502.509425 -13794.144650 -23017.449846     13.766584
PE03 -21776.032435  -6942.321755  18813.612577    -33.001427
PE04  28538.693664  -7379.085505  -2657.980020    -35.952318
PE05  -2233.587802 -17226.248395  23976.234170    263.863817
PE07 -18581.750697  17400.384572 -15084.677267     31.617422
PE08 -28465.393344   7636.619153   2717.776055   6583.091149
PE09  18475.353077 -17500.794113  15141.414268   6789.724285
PE12  22031.379490   1697.814851 -19678.097256   4175.425803
PE14  15531.045726 -15791.742095 -22059.183395   6581.743529
PE18 -21474.949195   6312.958892  12316.922094   6202.303681
PE19  20341.929587   8002.384190 -19943.898173     22.375175
PE24  11414.970132 -25762.108285   9031.981957   6702.409878
PE26  11210.842655  23129.823131  14679.451484   5928.389072
PE30 -16984.012677   8502.331191 -22717.639877   5833.897841
PG01 -16610.690164  -3079.751461  20425.271564    -48.514444
PG02  14535.428898  21910.059155  -4030.667774    113.007171
PG03 -19502.738012   7306.598447  16431.746935     71.978298
PG04   4927.698538 -21970.334367 -14107.671873     61.152466
PG05   9758.862555  12731.841799 -21240.994701     -7.793753
PG06   5119.876773  24778.929976   8063.476241    402.846950
PG07  -9691.522169  13622.373214 -20315.278399    190.465114
PG08 -25851.737109  -5072.887322  -3919.558078   -101.548789
PG09 -19601.439560   9209.259107 -15414.054100    513.865458
PG10   9051.740916 -23245.860591   8931.280521    185.146284
PG11 -21579.179088  -4355.692080  14196.866427   -736.102876
PG12  18579.239399  -3381.883776  18402.559813    333.205398
PG13  20611.391390  12554.681872 -11197.161864    -94.387653
PG14  -8388.085535 -15747.110555  20025.473611    -96.926946
PG15  26453.450193   2892.752759  -3133.470054   -354.100038
PG16  -7750.083112 -13137.190711 -21844.956743     24.535221
PG17  -2179.960487  14748.574889  22366.694336    -97.247225
PG18 -18028.870908 -11708.412034  15260.770633     10.098187
PG19   5939.036056  15274.401547  20567.631461   -435.711784
PG20  17325.582853 -18578.929172  -7793.136073    508.366364
PG21   5994.008996 -17477.147713 -18289.642391   -393.981003
PG22 -17250.669037  -1553.499154  20381.420933   -394.551407
PG23 -26446.741179    518.570093  -3979.034491   -216.985568
PG24  18081.260042   6285.145526  18408.873124    -49.853403
PG25  18976.489696 -16267.541210   8442.499194   -586.406763
PG26    159.561372 -20705.073942 -16570.110865   -146.503539
PG27 -18344.688295 -12115.856573 -15167.565038    368.870591
PG28 -12766.855144  22293.566414   7450.745301    715.902273
PG29  21974.633193  -5659.799760 -13811.754088    448.561847
PG30  -3255.088763  21616.213389 -14968.544541     73.194606
PG31  -5476.682262 -24972.843000   6374.194511    121.074226
PG32   2678.933003 -15104.198392  21716.492817   -508.305061
PJ01 -33859.641565  25120.065960   6468.669216   -258.234163
PJ02      0.000000      0.000000      0.000000 999999.999999
PJ03 -30222.722523  24563.221125  21317.563993    -15.051492
PR01   2251.506592 -13263.911311  21683.020453     26.346825
PR02 -16196.838850  -1898.968937  19675.240338    310.168648
PR03 -23082.280104   9466.446121   5461.125694    132.428804
PR04 -16155.382552  15409.205663 -12329.398173    261.257851
PR07  23039.164153  -9720.247375  -4908.656761    -37.775210
PR08  16579.962805 -15354.525558  11887.913697     23.143607
PR09   9344.749490  12138.775782  20384.737725     27.791319
PR10  10505.537467  -6875.105915  22193.232405     24.541518
PR11   5982.055476 -22407.011009  10683.358774    -29.009094
PR13  -9362.918360 -11860.763937 -20575.661991    -10.493411
PR14 -10745.228242   6581.481523 -22169.603373     27.320219
PR15  -7312.465982  20008.048566 -14104.001746    -10.283932
PR16   2328.635920  24753.222618   5924.141231     92.723872
PR17 -19544.794750  -3547.995543  15994.280581    133.090278
PR18  -6894.875260   8157.932764  23178.931170    195.874153
PR19   9676.643333  15789.451330  17537.640956    -52.613538
PR20  21199.624079  14125.759279    415.356838   -338.265711
PR21  19388.821517   3374.788920 -16238.021263     16.122724
PR22   4797.130805  -9421.399352 -23213.714212    -43.580790
PR23 -13108.075105 -16167.325697 -14762.110211    154.151711
PR24 -21699.894074 -13422.692881    470.646594   -166.390917
PR26  21311.173228  13989.564424   1127.137338     20.112803
EOF
